ORBCOMM FM37            
1 33064U 08031E   26026.17948394  .00003093  00000+0  42383-3 0  9996
2 33064  48.4402   2.7417 0005549 259.1099 197.1939 14.80823524947083
ORBCOMM FM40            
1 33065U 08031F   26026.18770088  .00004737  00000+0  59673-3 0  9997
2 33065  48.4419 342.7773 0006450 274.2617  99.5407 14.83403438947255
VESSELSAT 1             
1 37840U 11058C   26025.73285485  .00000444  00000+0  97371-4 0  9996
2 37840  19.9601 187.2059 0013696 114.4733 245.7101 14.11409877737784
ORBCOMM FM109           
1 40086U 14040A   26026.04664546  .00001397  00000+0  33333-3 0  9995
2 40086  47.0041  43.4230 0002681 283.8700  76.1887 14.58642167613592
ORBCOMM FM107           
1 40087U 14040B   26025.99511765  .00001401  00000+0  33344-3 0  9991
2 40087  47.0057  44.5364 0001817 249.1622 110.9069 14.58718475613661
ORBCOMM FM106           
1 40088U 14040C   26025.92852571  .00001987  00000+0  35720-3 0  9997
2 40088  47.0573 208.9245 0016024  20.9294 339.2250 14.70178885616249
ORBCOMM FM111           
1 40089U 14040D   26025.73773244  .00004862  00000+0  54257-3 0  9997
2 40089  47.0012  29.1803 0028329 181.2227 178.8605 14.88049582623350
ORBCOMM FM104           
1 40090U 14040E   26025.54422147  .00001054  00000+0  26899-3 0  9992
2 40090  47.0052  82.9722 0015667 144.4515 215.7416 14.57091446613043
